[{"OBJECT_NAME":"STARLINK-5261","OBJECT_ID":"2023-010H","EPOCH":"2026-03-09T22:31:03.912672","MEAN_MOTION":14.98328948,"ECCENTRICITY":0.00026707,"INCLINATION":70.0025,"RA_OF_ASC_NODE":23.9453,"ARG_OF_PERICENTER":253.2979,"MEAN_ANOMALY":106.7888,"EPHEMERIS_TYPE":0,"CLASSIFICATION_TYPE":"U","NORAD_CAT_ID":55276,"ELEMENT_SET_NO":999,"REV_AT_EPOCH":17330,"BSTAR":3.853512e-5,"MEAN_MOTION_DOT":3.67e-6,"MEAN_MOTION_DDOT":0},{"OBJECT_NAME":"FALCON 1 R\/B","OBJECT_ID":"2009-037B","EPOCH":"2026-03-08T17:35:48.909408","MEAN_MOTION":14.88730418,"ECCENTRICITY":0.00374904,"INCLINATION":9.0437,"RA_OF_ASC_NODE":137.3099,"ARG_OF_PERICENTER":171.2098,"MEAN_ANOMALY":188.8755,"EPHEMERIS_TYPE":0,"CLASSIFICATION_TYPE":"U","NORAD_CAT_ID":35579,"ELEMENT_SET_NO":999,"REV_AT_EPOCH":90049,"BSTAR":0.00039887201,"MEAN_MOTION_DOT":4.571e-5,"MEAN_MOTION_DDOT":0}]
